{"type": "FeatureCollection", "features": [ {"type": "Feature", "properties": {"norad_id": 34909, "name": "COSMOS 2251 DEB", "group": "cosmos-2251-debris", "lat": 9.943365795188472, "lon": 85.11607618452804, "alt_km": 689.8822555076076, "timestamp": "2025-12-09T20:37:09.685206+00:00", "meta": {"OBJECT_NAME": "COSMOS 2251 DEB", "OBJECT_ID": "1993-036ADE", "EPOCH": "2025-12-08T16:57:05.311872", "MEAN_MOTION": 14.77777338, "ECCENTRICITY": 0.0084799, "INCLINATION": 74.0146, "RA_OF_ASC_NODE": 84.5006, "ARG_OF_PERICENTER": 221.1994, "MEAN_ANOMALY": 138.2762, "EPHEMERIS_TYPE": 0, "CLASSIFICATION_TYPE": "U", "NORAD_CAT_ID": 34909, "ELEMENT_SET_NO": 999, "REV_AT_EPOCH": 66792, "BSTAR": 0.0010412976, "MEAN_MOTION_DOT": 7.909e-05, "MEAN_MOTION_DDOT": 0}, "tle": {"line1": "1 34909U 93036ADE 25342.70631148  .00007909  00000+0  10413-2 0  9997", "line2": "2 34909  74.0146  84.5006 0084799 221.1994 138.2762 14.77777338667920"}}, "geometry": {"type": "Point", "coordinates": [85.11607618452804, 9.943365795188472]}}, {"type": "Feature", "properties": {"norad_id": 34910, "name": "COSMOS 2251 DEB", "group": "cosmos-2251-debris", "lat": -15.625044843533212, "lon": 101.33385358867717, "alt_km": 1276.8617707777576, "timestamp": "2025-12-09T20:37:09.685217+00:00", "meta": {"OBJECT_NAME": "COSMOS 2251 DEB", "OBJECT_ID": "1993-036ADF", "EPOCH": "2025-12-04T03:27:09.174816", "MEAN_MOTION": 13.3765034, "ECCENTRICITY": 0.04679235, "INCLINATION": 73.8763, "RA_OF_ASC_NODE": 114.9889, "ARG_OF_PERICENTER": 235.2756, "MEAN_ANOMALY": 311.3517, "EPHEMERIS_TYPE": 0, "CLASSIFICATION_TYPE": "U", "NORAD_CAT_ID": 34910, "ELEMENT_SET_NO": 999, "REV_AT_EPOCH": 81409, "BSTAR": 0.0018660381, "MEAN_MOTION_DOT": 1.821e-05, "MEAN_MOTION_DDOT": 0}, "tle": {"line1": "1 34910U 93036ADF 25338.14385619  .00001821  00000+0  18660-2 0  9990", "line2": "2 34910  73.8763 114.9889 0467923 235.2756 311.3517 13.37650340814099"}}, "geometry": {"type": "Point", "coordinates": [101.33385358867717, -15.625044843533212]}}, {"type": "Feature", "properties": {"norad_id": 34911, "name": "COSMOS 2251 DEB", "group": "cosmos-2251-debris", "lat": -59.83638293377317, "lon": -139.2628913188554, "alt_km": 691.6749192606485, "timestamp": "2025-12-09T20:37:09.685228+00:00", "meta": {"OBJECT_NAME": "COSMOS 2251 DEB", "OBJECT_ID": "1993-036ADG", "EPOCH": "2025-12-09T11:50:36.728160", "MEAN_MOTION": 14.59364139, "ECCENTRICITY": 0.00834555, "INCLINATION": 74.0415, "RA_OF_ASC_NODE": 250.9305, "ARG_OF_PERICENTER": 17.1677, "MEAN_ANOMALY": 159.4854, "EPHEMERIS_TYPE": 0, "CLASSIFICATION_TYPE": "U", "NORAD_CAT_ID": 34911, "ELEMENT_SET_NO": 999, "REV_AT_EPOCH": 88539, "BSTAR": 0.00030402395, "MEAN_MOTION_DOT": 1.479e-05, "MEAN_MOTION_DDOT": 0}, "tle": {"line1": "1 34911U 93036ADG 25343.49348065  .00001479  00000+0  30402-3 0  9997", "line2": "2 34911  74.0415 250.9305 0083455  17.1677 159.4854 14.59364139885393"}}, "geometry": {"type": "Point", "coordinates": [-139.2628913188554, -59.83638293377317]}}, {"type": "Feature", "properties": {"norad_id": 34913, "name": "COSMOS 2251 DEB", "group": "cosmos-2251-debris", "lat": -15.70692328270372, "lon": 112.3966040559353, "alt_km": 794.0469151066236, "timestamp": "2025-12-09T20:37:09.685238+00:00", "meta": {"OBJECT_NAME": "COSMOS 2251 DEB", "OBJECT_ID": "1993-036ADJ", "EPOCH": "2025-12-09T03:03:43.509888", "MEAN_MOTION": 14.34635486, "ECCENTRICITY": 0.00202101, "INCLINATION": 74.0282, "RA_OF_ASC_NODE": 289.1171, "ARG_OF_PERICENTER": 40.2127, "MEAN_ANOMALY": 339.2145, "EPHEMERIS_TYPE": 0, "CLASSIFICATION_TYPE": "U", "NORAD_CAT_ID": 34913, "ELEMENT_SET_NO": 999, "REV_AT_EPOCH": 65136, "BSTAR": 8.6960494e-05, "MEAN_MOTION_DOT": 2.2e-06, "MEAN_MOTION_DDOT": 0}, "tle": {"line1": "1 34913U 93036ADJ 25343.12758692  .00000220  00000+0  86960-4 0  9994", "line2": "2 34913  74.0282 289.1171 0020210  40.2127 339.2145 14.34635486651367"}}, "geometry": {"type": "Point", "coordinates": [112.3966040559353, -15.70692328270372]}}, {"type": "Feature", "properties": {"norad_id": 34918, "name": "COSMOS 2251 DEB", "group": "cosmos-2251-debris", "lat": 62.31941993739663, "lon": -7.883254973753821, "alt_km": 702.1105565277403, "timestamp": "2025-12-09T20:37:09.685248+00:00", "meta": {"OBJECT_NAME": "COSMOS 2251 DEB", "OBJECT_ID": "1993-036ADP", "EPOCH": "2025-12-02T07:49:20.078112", "MEAN_MOTION": 14.60858458, "ECCENTRICITY": 0.0034182, "INCLINATION": 74.0712, "RA_OF_ASC_NODE": 333.4916, "ARG_OF_PERICENTER": 302.4495, "MEAN_ANOMALY": 120.4085, "EPHEMERIS_TYPE": 0, "CLASSIFICATION_TYPE": "U", "NORAD_CAT_ID": 34918, "ELEMENT_SET_NO": 999, "REV_AT_EPOCH": 65184, "BSTAR": 0.0024749, "MEAN_MOTION_DOT": 0.00012194, "MEAN_MOTION_DDOT": 0}, "tle": {"line1": "1 34918U 93036ADP 25336.32592683  .00012194  00000+0  24749-2 0  9997", "line2": "2 34918  74.0712 333.4916 0034182 302.4495 120.4085 14.60858458651845"}}, "geometry": {"type": "Point", "coordinates": [-7.883254973753821, 62.31941993739663]}}, {"type": "Feature", "properties": {"norad_id": 34924, "name": "COSMOS 2251 DEB", "group": "cosmos-2251-debris", "lat": 68.30695582138665, "lon": 140.94584908950011, "alt_km": 696.1426903694792, "timestamp": "2025-12-09T20:37:09.685259+00:00", "meta": {"OBJECT_NAME": "COSMOS 2251 DEB", "OBJECT_ID": "1993-036ADV", "EPOCH": "2025-12-09T09:01:22.181088", "MEAN_MOTION": 14.59977739, "ECCENTRICITY": 0.00546835, "INCLINATION": 74.0406, "RA_OF_ASC_NODE": 95.8654, "ARG_OF_PERICENTER": 181.353, "MEAN_ANOMALY": 235.8383, "EPHEMERIS_TYPE": 0, "CLASSIFICATION_TYPE": "U", "NORAD_CAT_ID": 34924, "ELEMENT_SET_NO": 999, "REV_AT_EPOCH": 87674, "BSTAR": 0.0016181784, "MEAN_MOTION_DOT": 7.905e-05, "MEAN_MOTION_DDOT": 0}, "tle": {"line1": "1 34924U 93036ADV 25343.37595117  .00007905  00000+0  16182-2 0  9998", "line2": "2 34924  74.0406  95.8654 0054683 181.3530 235.8383 14.59977739876744"}}, "geometry": {"type": "Point", "coordinates": [140.94584908950011, 68.30695582138665]}}, {"type": "Feature", "properties": {"norad_id": 34944, "name": "COSMOS 2251 DEB", "group": "cosmos-2251-debris", "lat": -60.84295282929456, "lon": -154.28386167983996, "alt_km": 989.4972410847522, "timestamp": "2025-12-09T20:37:09.685269+00:00", "meta": {"OBJECT_NAME": "COSMOS 2251 DEB", "OBJECT_ID": "1993-036ADX", "EPOCH": "2025-12-07T09:30:46.029312", "MEAN_MOTION": 14.14167925, "ECCENTRICITY": 0.02195348, "INCLINATION": 73.7495, "RA_OF_ASC_NODE": 241.6775, "ARG_OF_PERICENTER": 90.2413, "MEAN_ANOMALY": 272.3884, "EPHEMERIS_TYPE": 0, "CLASSIFICATION_TYPE": "U", "NORAD_CAT_ID": 34944, "ELEMENT_SET_NO": 999, "REV_AT_EPOCH": 64007, "BSTAR": 0.00099492053, "MEAN_MOTION_DOT": 2.364e-05, "MEAN_MOTION_DDOT": 0}, "tle": {"line1": "1 34944U 93036ADX 25341.39636608  .00002364  00000+0  99492-3 0  9991", "line2": "2 34944  73.7495 241.6775 0219534  90.2413 272.3884 14.14167925640077"}}, "geometry": {"type": "Point", "coordinates": [-154.28386167983996, -60.84295282929456]}}, {"type": "Feature", "properties": {"norad_id": 34946, "name": "COSMOS 2251 DEB", "group": "cosmos-2251-debris", "lat": -71.3681246920987, "lon": -134.18515287789464, "alt_km": 717.8154237121644, "timestamp": "2025-12-09T20:37:09.685280+00:00", "meta": {"OBJECT_NAME": "COSMOS 2251 DEB", "OBJECT_ID": "1993-036ADZ", "EPOCH": "2025-12-09T06:17:52.783008", "MEAN_MOTION": 14.61967324, "ECCENTRICITY": 0.004878, "INCLINATION": 74.0235, "RA_OF_ASC_NODE": 348.7755, "ARG_OF_PERICENTER": 127.0931, "MEAN_ANOMALY": 233.4709, "EPHEMERIS_TYPE": 0, "CLASSIFICATION_TYPE": "U", "NORAD_CAT_ID": 34946, "ELEMENT_SET_NO": 999, "REV_AT_EPOCH": 88158, "BSTAR": 0.00083755, "MEAN_MOTION_DOT": 4.24e-05, "MEAN_MOTION_DDOT": 0}, "tle": {"line1": "1 34946U 93036ADZ 25343.26241647  .00004240  00000+0  83755-3 0  9996", "line2": "2 34946  74.0235 348.7755 0048780 127.0931 233.4709 14.61967324881589"}}, "geometry": {"type": "Point", "coordinates": [-134.18515287789464, -71.3681246920987]}}, {"type": "Feature", "properties": {"norad_id": 34949, "name": "COSMOS 2251 DEB", "group": "cosmos-2251-debris", "lat": 32.4525035304604, "lon": 125.78459176025865, "alt_km": 684.3618910463447, "timestamp": "2025-12-09T20:37:09.685291+00:00", "meta": {"OBJECT_NAME": "COSMOS 2251 DEB", "OBJECT_ID": "1993-036AEC", "EPOCH": "2025-12-09T15:34:41.030400", "MEAN_MOTION": 14.73963573, "ECCENTRICITY": 0.00804198, "INCLINATION": 74.0182, "RA_OF_ASC_NODE": 115.6941, "ARG_OF_PERICENTER": 261.6413, "MEAN_ANOMALY": 97.5637, "EPHEMERIS_TYPE": 0, "CLASSIFICATION_TYPE": "U", "NORAD_CAT_ID": 34949, "ELEMENT_SET_NO": 999, "REV_AT_EPOCH": 88316, "BSTAR": 0.00087028728, "MEAN_MOTION_DOT": 5.989e-05, "MEAN_MOTION_DDOT": 0}, "tle": {"line1": "1 34949U 93036AEC 25343.64908600  .00005989  00000+0  87029-3 0  9999", "line2": "2 34949  74.0182 115.6941 0080419 261.6413  97.5637 14.73963573883166"}}, "geometry": {"type": "Point", "coordinates": [125.78459176025865, 32.4525035304604]}}, {"type": "Feature", "properties": {"norad_id": 34953, "name": "COSMOS 2251 DEB", "group": "cosmos-2251-debris", "lat": 57.46740887479911, "lon": 59.602907045838066, "alt_km": 625.3178602962735, "timestamp": "2025-12-09T20:37:09.685302+00:00", "meta": {"OBJECT_NAME": "COSMOS 2251 DEB", "OBJECT_ID": "1993-036AEG", "EPOCH": "2025-12-09T14:29:39.473376", "MEAN_MOTION": 14.68914598, "ECCENTRICITY": 0.0057876, "INCLINATION": 74.0931, "RA_OF_ASC_NODE": 33.5386, "ARG_OF_PERICENTER": 26.5216, "MEAN_ANOMALY": 125.376, "EPHEMERIS_TYPE": 0, "CLASSIFICATION_TYPE": "U", "NORAD_CAT_ID": 34953, "ELEMENT_SET_NO": 999, "REV_AT_EPOCH": 88082, "BSTAR": 0.0012027931, "MEAN_MOTION_DOT": 7.195e-05, "MEAN_MOTION_DDOT": 0}, "tle": {"line1": "1 34953U 93036AEG 25343.60392909  .00007195  00000+0  12028-2 0  9996", "line2": "2 34953  74.0931  33.5386 0057876  26.5216 125.3760 14.68914598880828"}}, "geometry": {"type": "Point", "coordinates": [59.602907045838066, 57.46740887479911]}}]}